[
    {
        "Altitude(m)": 605470.7367216692,
        "Argument of Periapsis(deg)": 0.0,
        "Eccentricity": 0.0,
        "Inclination(deg)": 60.0,
        "Latitude(deg)": 27.988033161925387,
        "Longitude(deg)": -107.73703603681359,
        "Mean Anomaly(deg)": 147.27270000000001,
        "RAAN(deg)": 190.0,
        "Satellite Name": "Test1 845",
        "Satellite Number": 845,
        "Semi-Major Axis(m)": 6980739.136638005,
        "Time(s)": 0
    },
    {
        "Altitude(m)": 605395.7752013931,
        "Argument of Periapsis(deg)": 0.00010418945913296404,
        "Eccentricity": 0.0,
        "Inclination(deg)": 60.0,
        "Latitude(deg)": 27.473723647977337,
        "Longitude(deg)": -107.38384917271576,
        "Mean Anomaly(deg)": 147.8928061454618,
        "RAAN(deg)": 189.99957995086027,
        "Satellite Name": "Test1 845",
        "Satellite Number": 845,
        "Semi-Major Axis(m)": 6980739.136638005,
        "Time(s)": 10
    }
]